OBJECT_NAME,OBJECT_ID,EPOCH,MEAN_MOTION,ECCENTRICITY,INCLINATION,RA_OF_ASC_NODE,ARG_OF_PERICENTER,MEAN_ANOMALY,EPHEMERIS_TYPE,CLASSIFICATION_TYPE,NORAD_CAT_ID,ELEMENT_SET_NO,REV_AT_EPOCH,BSTAR,MEAN_MOTION_DOT,MEAN_MOTION_DDOT
SAR-LUPE 2,2007-030A,2026-07-19T20:01:13.537344,15.54165436,.0005104,98.1060,309.4381,204.5063,155.5947,0,U,31797,999,6200,.26569E-3,.17186E-3,0
SAPPHIRE,2013-009C,2026-07-19T20:35:38.768640,14.35248271,.0011863,98.4279,19.5407,146.7641,213.4292,0,U,39088,999,70126,.24349E-4,.27E-6,0
PRAETORIAN SDA_602,2025-203A,2026-07-19T18:33:26.958816,13.83888441,.0007138,81.3050,340.5987,107.2249,252.9689,0,U,65565,999,4320,.55301E-4,.73E-6,0
PRAETORIAN SDA_603,2025-203B,2026-07-19T19:13:49.730592,13.83962087,.0010768,81.3055,340.4942,103.7343,256.5013,0,U,65566,999,4321,.13533E-3,.162E-5,0
PRAETORIAN SDA_604,2025-203C,2026-07-19T20:12:17.531712,13.83050646,.0006669,81.3072,340.9198,110.9777,249.2094,0,U,65567,999,4319,.59101E-4,.77E-6,0
PRAETORIAN SDA_605,2025-203D,2026-07-19T19:13:31.121760,13.83200618,.0009368,81.3036,340.5953,102.3429,257.8776,0,U,65568,999,4320,.57148E-4,.75E-6,0
PRAETORIAN SDA_606,2025-203E,2026-07-19T20:36:19.998720,13.83200187,.0007236,81.3073,340.7821,105.5375,254.6581,0,U,65569,999,4320,.19419E-4,.33E-6,0
PRAETORIAN SDA_607,2025-203F,2026-07-19T18:35:37.165344,13.83758800,.0010016,81.3057,340.4748,103.8089,256.4183,0,U,65570,999,4321,.14092E-3,.168E-5,0
PRAETORIAN SDA_608,2025-203G,2026-07-19T19:54:16.841376,13.83819890,.000713,81.3026,340.5860,109.5423,250.6504,0,U,65571,999,4320,.47103E-4,.64E-6,0
PRAETORIAN SDA_609,2025-203H,2026-07-19T19:48:02.508192,13.84211870,.0008002,81.3069,340.5676,104.0087,256.1960,0,U,65572,999,4321,.79428E-4,.101E-5,0
PRAETORIAN SDA_610,2025-203J,2026-07-19T19:29:37.002048,13.83528770,.0007876,81.3027,340.5671,108.9827,251.2183,0,U,65573,999,4320,.62158E-4,.8E-6,0
PRAETORIAN SDA_611,2025-203K,2026-07-19T19:43:29.586144,13.83311194,.0006772,81.3032,340.7426,113.2128,246.9742,0,U,65574,999,4319,.12608E-3,.15E-5,0
PRAETORIAN SDA_612,2025-203L,2026-07-19T20:13:55.153344,13.85041373,.0010413,81.3048,340.2290,103.8984,256.3332,0,U,65575,999,4323,.18941E-3,.226E-5,0
PRAETORIAN SDA_613,2025-203M,2026-07-19T18:27:28.313280,13.82768180,.000682,81.3019,340.8135,104.7195,255.4717,0,U,65576,999,4318,.52481E-4,.69E-6,0
PRAETORIAN SDA_614,2025-203N,2026-07-19T18:23:10.533696,13.84778874,.0008281,81.3033,340.3862,102.5915,257.6168,0,U,65577,999,4322,.34854E-4,.51E-6,0
PRAETORIAN SDA_615,2025-203P,2026-07-19T19:45:30.198816,13.84438631,.0010206,81.3044,340.3183,102.8945,257.3352,0,U,65578,999,4322,.10065E-3,.125E-5,0
PRAETORIAN SDA_616,2025-203Q,2026-07-19T19:43:45.572736,13.83270442,.0006666,81.3082,340.9092,111.4631,248.7236,0,U,65579,999,4319,.8989E-4,.111E-5,0
PRAETORIAN SDA_617,2025-203R,2026-07-19T20:18:52.671744,13.83152615,.0008532,81.3056,340.7148,102.7301,257.4809,0,U,65580,999,4320,.51404E-4,.68E-6,0
PRAETORIAN SDA_618,2025-203S,2026-07-19T18:59:30.345216,13.84225711,.0010906,81.3041,340.2809,105.6588,254.5772,0,U,65581,999,4322,.98283E-4,.122E-5,0
PRAETORIAN SDA_619,2025-203T,2026-07-19T18:25:39.706752,13.83805422,.0009433,81.3067,340.6354,103.6586,256.5621,0,U,65582,999,4383,.13528E-3,.162E-5,0
PRAETORIAN SDA_620,2025-203U,2026-07-19T19:19:03.076608,13.83207888,.0008653,81.3051,340.6365,100.8986,259.3144,0,U,65583,999,4320,.69673E-4,.88E-6,0
PRAETORIAN SDA_621,2025-203V,2026-07-19T20:12:26.094816,13.83804383,.0008525,81.3039,340.4974,98.0365,262.1759,0,U,65584,999,4321,.59893E-4,.78E-6,0
PRAETORIAN SDA_601,2025-203W,2026-07-19T19:51:40.230144,13.83170954,.0006642,81.3062,340.8445,113.8527,246.3325,0,U,65585,999,4319,.23982E-3,.275E-5,0
VICTUS HAZE PUMA,2026-142A,2026-07-19T06:11:59.220384,15.21137439,.0026471,97.4459,97.5147,252.2212,107.6135,0,U,69646,999,454,.82930199E-4,.1791E-4,0
