SAR-LUPE 2              
1 31797U 07030A   26200.83418446  .00017186  00000+0  26569-3 0  9998
2 31797  98.1060 309.4381 0005104 204.5063 155.5947 15.54165436 62005
SAPPHIRE                
1 39088U 13009C   26200.85808760  .00000027  00000+0  24349-4 0  9997
2 39088  98.4279  19.5407 0011863 146.7641 213.4292 14.35248271701269
PRAETORIAN SDA_602      
1 65565U 25203A   26200.77322869  .00000073  00000+0  55301-4 0  9990
2 65565  81.3050 340.5987 0007138 107.2249 252.9689 13.83888441 43204
PRAETORIAN SDA_603      
1 65566U 25203B   26200.80127003  .00000162  00000+0  13533-3 0  9997
2 65566  81.3055 340.4942 0010768 103.7343 256.5013 13.83962087 43210
PRAETORIAN SDA_604      
1 65567U 25203C   26200.84186958  .00000077  00000+0  59101-4 0  9993
2 65567  81.3072 340.9198 0006669 110.9777 249.2094 13.83050646 43198
PRAETORIAN SDA_605      
1 65568U 25203D   26200.80105465  .00000075  00000+0  57148-4 0  9991
2 65568  81.3036 340.5953 0009368 102.3429 257.8776 13.83200618 43202
PRAETORIAN SDA_606      
1 65569U 25203E   26200.85856480  .00000033  00000+0  19419-4 0  9990
2 65569  81.3073 340.7821 0007236 105.5375 254.6581 13.83200187 43207
PRAETORIAN SDA_607      
1 65570U 25203F   26200.77473571  .00000168  00000+0  14092-3 0  9999
2 65570  81.3057 340.4748 0010016 103.8089 256.4183 13.83758800 43218
PRAETORIAN SDA_608      
1 65571U 25203G   26200.82936159  .00000064  00000+0  47103-4 0  9997
2 65571  81.3026 340.5860 0007130 109.5423 250.6504 13.83819890 43208
PRAETORIAN SDA_609      
1 65572U 25203H   26200.82502903  .00000101  00000+0  79428-4 0  9991
2 65572  81.3069 340.5676 0008002 104.0087 256.1960 13.84211870 43219
PRAETORIAN SDA_610      
1 65573U 25203J   26200.81223382  .00000080  00000+0  62158-4 0  9990
2 65573  81.3027 340.5671 0007876 108.9827 251.2183 13.83528770 43203
PRAETORIAN SDA_611      
1 65574U 25203K   26200.82187021  .00000150  00000+0  12608-3 0  9993
2 65574  81.3032 340.7426 0006772 113.2128 246.9742 13.83311194 43197
PRAETORIAN SDA_612      
1 65575U 25203L   26200.84299946  .00000226  00000+0  18941-3 0  9996
2 65575  81.3048 340.2290 0010413 103.8984 256.3332 13.85041373 43237
PRAETORIAN SDA_613      
1 65576U 25203M   26200.76907770  .00000069  00000+0  52481-4 0  9992
2 65576  81.3019 340.8135 0006820 104.7195 255.4717 13.82768180 43181
PRAETORIAN SDA_614      
1 65577U 25203N   26200.76609414  .00000051  00000+0  34854-4 0  9992
2 65577  81.3033 340.3862 0008281 102.5915 257.6168 13.84778874 43221
PRAETORIAN SDA_615      
1 65578U 25203P   26200.82326619  .00000125  00000+0  10065-3 0  9992
2 65578  81.3044 340.3183 0010206 102.8945 257.3352 13.84438631 43222
PRAETORIAN SDA_616      
1 65579U 25203Q   26200.82205524  .00000111  00000+0  89890-4 0  9992
2 65579  81.3082 340.9092 0006666 111.4631 248.7236 13.83270442 43197
PRAETORIAN SDA_617      
1 65580U 25203R   26200.84644296  .00000068  00000+0  51404-4 0  9990
2 65580  81.3056 340.7148 0008532 102.7301 257.4809 13.83152615 43207
PRAETORIAN SDA_618      
1 65581U 25203S   26200.79132344  .00000122  00000+0  98283-4 0  9998
2 65581  81.3041 340.2809 0010906 105.6588 254.5772 13.84225711 43226
PRAETORIAN SDA_619      
1 65582U 25203T   26200.76782068  .00000162  00000+0  13528-3 0  9992
2 65582  81.3067 340.6354 0009433 103.6586 256.5621 13.83805422 43837
PRAETORIAN SDA_620      
1 65583U 25203U   26200.80489672  .00000088  00000+0  69673-4 0  9993
2 65583  81.3051 340.6365 0008653 100.8986 259.3144 13.83207888 43203
PRAETORIAN SDA_621      
1 65584U 25203V   26200.84196869  .00000078  00000+0  59893-4 0  9993
2 65584  81.3039 340.4974 0008525  98.0365 262.1759 13.83804383 43219
PRAETORIAN SDA_601      
1 65585U 25203W   26200.82754896  .00000275  00000+0  23982-3 0  9990
2 65585  81.3062 340.8445 0006642 113.8527 246.3325 13.83170954 43197
VICTUS HAZE PUMA        
1 69646U 26142A   26200.25832431  .00001791  00000+0  82930-4 0  9997
2 69646  97.4459  97.5147 0026471 252.2212 107.6135 15.21137439  4542
